[{"OBJECT_NAME":"STARLINK-32090","OBJECT_ID":"2024-086K","EPOCH":"2026-03-09T00:17:14.763552","MEAN_MOTION":15.27581318,"ECCENTRICITY":5.687e-5,"INCLINATION":42.9985,"RA_OF_ASC_NODE":67.5931,"ARG_OF_PERICENTER":296.4773,"MEAN_ANOMALY":63.602,"EPHEMERIS_TYPE":0,"CLASSIFICATION_TYPE":"U","NORAD_CAT_ID":59691,"ELEMENT_SET_NO":999,"REV_AT_EPOCH":10396,"BSTAR":3.950809e-5,"MEAN_MOTION_DOT":8.26e-6,"MEAN_MOTION_DDOT":0},{"OBJECT_NAME":"LIME","OBJECT_ID":"2025-009AR","EPOCH":"2026-03-09T17:44:15.459648","MEAN_MOTION":15.28703313,"ECCENTRICITY":0.00016347,"INCLINATION":97.3985,"RA_OF_ASC_NODE":151.4831,"ARG_OF_PERICENTER":35.9029,"MEAN_ANOMALY":324.232,"EPHEMERIS_TYPE":0,"CLASSIFICATION_TYPE":"U","NORAD_CAT_ID":62648,"ELEMENT_SET_NO":999,"REV_AT_EPOCH":6376,"BSTAR":0.00047722827,"MEAN_MOTION_DOT":0.00013254,"MEAN_MOTION_DDOT":0}]
